ISS OBJECT XW           
1 66910U 98067XW  26057.35265649  .00112245  00000+0  10924-2 0  9994
2 66910  51.6265 123.1932 0004341  27.6872 332.4354 15.65404578 13401
ISS OBJECT XX           
1 66911U 98067XX  26057.45827257  .00192060  00000+0  15289-2 0  9997
2 66911  51.6219 121.6389 0006501  20.9484 339.1779 15.70039682 13428
ISS OBJECT XY           
1 66912U 98067XY  26057.38929315  .00078937  00000+0  90108-3 0  9998
2 66912  51.6278 124.1991 0002331  32.3075 327.8061 15.61500650 13382
ISS OBJECT XZ           
1 67683U 98067XZ  26057.58327148  .00040888  00000+0  69811-3 0  9993
2 67683  51.6313 126.9935 0009776 149.0473 211.1094 15.50854175  3061
GXIBA-1                 
1 67684U 98067YA  26057.57044840  .00072297  00000+0  11548-2 0  9990
2 67684  51.6306 126.9091 0011233 140.1266 220.0551 15.52453844  3067
CORAL                   
1 67685U 98067YB  26057.58101291  .00044531  00000+0  75186-3 0  9995
2 67685  51.6315 126.9792 0011675 145.1158 215.0598 15.51107174  3067
ISS OBJECT YC           
1 67686U 98067YC  26057.64294039  .00053017  00000+0  88335-3 0  9995
2 67686  51.6316 126.6438 0007614 114.2311 245.9475 15.51445447  3074
LEOPARD                 
1 67687U 98067YD  26057.58198618  .00039802  00000+0  67739-3 0  9996
2 67687  51.6317 126.9861 0007694 117.4122 242.7651 15.50976867  2986
ISS OBJECT YE           
1 67688U 98067YE  26057.57959780  .00049335  00000+0  82764-3 0  9998
2 67688  51.6319 126.9710 0007610 114.9063 245.2718 15.51284687  2981
CREW DRAGON 12          
1 67796U 26031A   26057.54172094  .00011988  00000+0  23066-3 0  9995
2 67796  51.6322 127.4658 0008344 135.8715 224.2940 15.48311551554571
